OBJECT_NAME,OBJECT_ID,EPOCH,MEAN_MOTION,ECCENTRICITY,INCLINATION,RA_OF_ASC_NODE,ARG_OF_PERICENTER,MEAN_ANOMALY,EPHEMERIS_TYPE,CLASSIFICATION_TYPE,NORAD_CAT_ID,ELEMENT_SET_NO,REV_AT_EPOCH,BSTAR,MEAN_MOTION_DOT,MEAN_MOTION_DDOT
2024-105D,2024-105D,2026-07-07T12:41:39.780096,15.22827632,.0012956,97.5819,207.6540,142.1425,218.0724,0,U,59920,999,11635,.18041E-3,.4156E-4,0
2024-105E,2024-105E,2026-07-07T11:51:46.623168,15.10944559,.003288,97.5793,204.9047,115.9281,244.5343,0,U,59921,999,11620,.11596E-3,.1892E-4,0
STARLINK-31872,2024-106A,2026-07-07T12:12:34.818048,15.27563075,.0001796,43.0079,16.1887,244.4905,115.5761,0,U,59922,999,11888,.18617E-3,.4861E-4,0
STARLINK-31972,2024-106B,2026-07-06T12:14:24.451872,15.27516426,.0001782,43.0045,21.5883,267.4778,92.5870,0,U,59923,999,11874,-.35600758E-3,-.10027E-3,0
STARLINK-31958,2024-106C,2026-07-07T11:56:38.963616,15.27576728,.0001355,43.0022,1.4008,258.1651,101.9049,0,U,59924,999,11901,.23683E-4,.39E-5,0
STARLINK-31959,2024-106D,2026-07-06T22:29:40.762176,15.27602528,.0001957,43.0048,15.2367,266.2813,93.7815,0,U,59925,999,11880,-.16643E-3,-.4843E-4,0
STARLINK-31957,2024-106E,2026-07-06T22:21:34.934976,15.27587710,.0001153,43.0041,18.7375,275.4360,84.6360,0,U,59926,999,11881,.66308E-4,.1563E-4,0
STARLINK-31968,2024-106F,2026-07-06T22:32:44.120256,15.27504286,.0000523,43.0042,18.7952,269.1556,90.9236,0,U,59927,999,11881,.45958E-3,.12377E-3,0
STARLINK-31970,2024-106G,2026-07-07T12:00:02.998944,15.27581978,.0001535,43.0020,15.9492,285.5510,146.8894,0,U,59928,999,590,.99038E-3,.27093E-3,0
STARLINK-31932,2024-106H,2026-07-07T00:00:02.998944,15.27567199,.0001278,43.0038,15.5175,286.3226,143.2829,0,U,59929,999,587,.23525E-2,.65021E-3,0
STARLINK-31956,2024-106J,2026-07-07T13:06:01.168704,15.27578756,.0001198,43.0007,15.6073,266.6115,93.4600,0,U,59930,999,11885,.34573E-4,.689E-5,0
STARLINK-31960,2024-106K,2026-07-05T23:04:04.615392,15.27550395,.00015068,43.0021,24.3462,252.6704,107.3983,0,U,59931,999,11861,-.26119583E-3,-.7436E-4,0
STARLINK-31432,2024-106L,2026-07-07T11:48:31.918176,15.27584120,.0001733,43.0013,16.0597,296.5149,63.5525,0,U,59932,999,11883,-.12427E-2,-.34307E-3,0
STARLINK-31853,2024-106M,2026-07-07T12:00:02.998944,15.27596796,.0001334,43.0017,15.9161,240.9262,205.6301,0,U,59933,999,590,.12586E-2,.34552E-3,0
STARLINK-31971,2024-106N,2026-07-07T12:20:38.685696,15.27566008,.0001786,43.0041,12.6181,251.1336,108.9322,0,U,59934,999,11876,.19716E-3,.5165E-4,0
STARLINK-31962,2024-106Q,2026-07-07T12:08:52.947168,15.27579805,.000142,43.0027,16.1618,245.5079,114.5625,0,U,59936,999,11884,.53499E-4,.121E-4,0
STARLINK-31879,2024-106R,2026-07-07T12:23:40.856640,15.27562291,.00021,43.0053,16.2384,272.4850,87.5762,0,U,59937,999,11889,.21061E-3,.5534E-4,0
STARLINK-31876,2024-106S,2026-07-06T22:53:04.545312,15.27565820,.0001693,43.0024,18.8994,261.9571,98.1089,0,U,59938,999,11877,-.73936E-5,-.466E-5,0
STARLINK-31955,2024-106T,2026-07-05T22:51:08.522208,15.27555589,.00013661,43.0032,24.2762,269.7806,90.2889,0,U,59939,999,11865,-.13377181E-3,-.3939E-4,0
STARLINK-31946,2024-106U,2026-07-06T22:10:43.288032,15.27574009,.0001398,43.0052,19.5362,254.7400,105.3297,0,U,59940,999,10938,.8969E-5,-.15E-6,0
STARLINK-31948,2024-106V,2026-07-07T12:09:33.174144,15.27574106,.0000823,43.0057,12.6052,193.5589,166.5240,0,U,59941,999,11888,.11135E-4,.44E-6,0
STARLINK-31900,2024-106W,2026-07-06T22:27:10.115136,15.27548645,.0001733,43.0057,18.7647,255.1403,104.9257,0,U,59942,999,11876,.23122E-3,.61E-4,0
STARLINK-31973,2024-106X,2026-07-07T11:57:46.993248,15.27527842,.0001945,43.0071,16.1087,207.2773,152.7977,0,U,59943,999,11884,.56011E-3,.15158E-3,0
STARLINK-31966,2024-106Y,2026-07-07T11:52:14.039616,15.27497501,.000215,42.9992,16.0678,183.1557,176.9281,0,U,59944,999,11889,.57022E-3,.15423E-3,0
STARLINK-11145 [DTC],2024-107A,2026-07-06T16:47:51.170784,15.69728126,.000099,53.1599,24.8965,94.1325,265.9806,0,U,59945,999,12083,-.48605E-5,-.1178E-4,0
STARLINK-11113 [DTC],2024-107C,2026-07-06T23:01:28.830144,15.69746218,.0000642,53.1586,22.9277,100.4443,259.6647,0,U,59947,999,12088,.20047E-4,.1845E-4,0
STARLINK-11123 [DTC],2024-107D,2026-07-06T16:33:42.625152,15.69741348,.0000487,53.1588,24.8331,72.2848,287.8223,0,U,59948,999,12089,.53641E-4,.5923E-4,0
STARLINK-11138 [DTC],2024-107E,2026-07-06T17:37:08.883840,15.69728005,.000116,53.1594,24.3846,92.3992,267.7159,0,U,59949,999,12090,-.35742E-5,-.1022E-4,0
STARLINK-11130 [DTC],2024-107F,2026-07-07T12:18:34.471008,15.69705258,.0001357,53.1580,20.7193,55.7486,304.3660,0,U,59950,999,12096,.96137E-4,.11071E-3,0
STARLINK-11124 [DTC],2024-107H,2026-07-07T12:04:26.861088,15.69707714,.0000996,53.1576,20.6550,88.5794,271.5338,0,U,59952,999,12103,.69926E-4,.789E-4,0
