2024-105D               
1 59920U 24105D   26188.52893264  .00004156  00000+0  18041-3 0  9993
2 59920  97.5819 207.6540 0012956 142.1425 218.0724 15.22827632116350
2024-105E               
1 59921U 24105E   26188.49428962  .00001892  00000+0  11596-3 0  9991
2 59921  97.5793 204.9047 0032880 115.9281 244.5343 15.10944559116200
STARLINK-31872          
1 59922U 24106A   26188.50873632  .00004861  00000+0  18617-3 0  9993
2 59922  43.0079  16.1887 0001796 244.4905 115.5761 15.27563075118887
STARLINK-31972          
1 59923U 24106B   26187.51000523 -.00010027  00000+0 -35601-3 0  9990
2 59923  43.0045  21.5883 0001782 267.4778  92.5870 15.27516426118743
STARLINK-31958          
1 59924U 24106C   26188.49767319  .00000390  00000+0  23683-4 0  9990
2 59924  43.0022   1.4008 0001355 258.1651 101.9049 15.27576728119013
STARLINK-31959          
1 59925U 24106D   26187.93727734 -.00004843  00000+0 -16643-3 0  9992
2 59925  43.0048  15.2367 0001957 266.2813  93.7815 15.27602528118804
STARLINK-31957          
1 59926U 24106E   26187.93165434  .00001563  00000+0  66308-4 0  9994
2 59926  43.0041  18.7375 0001153 275.4360  84.6360 15.27587710118812
STARLINK-31968          
1 59927U 24106F   26187.93939954  .00012377  00000+0  45958-3 0  9993
2 59927  43.0042  18.7952 0000523 269.1556  90.9236 15.27504286118811
STARLINK-31970          
1 59928U 24106G   26188.50003471  .00027093  00000+0  99038-3 0  9993
2 59928  43.0020  15.9492 0001535 285.5510 146.8894 15.27581978  5901
STARLINK-31932          
1 59929U 24106H   26188.00003471  .00065021  00000+0  23525-2 0  9999
2 59929  43.0038  15.5175 0001278 286.3226 143.2829 15.27567199  5876
STARLINK-31956          
1 59930U 24106J   26188.54584686  .00000689  00000+0  34573-4 0  9998
2 59930  43.0007  15.6073 0001198 266.6115  93.4600 15.27578756118858
STARLINK-31960          
1 59931U 24106K   26186.96116453 -.00007436  00000+0 -26120-3 0  9993
2 59931  43.0021  24.3462 0001506 252.6704 107.3983 15.27550395118618
STARLINK-31432          
1 59932U 24106L   26188.49203609 -.00034307  00000+0 -12427-2 0  9995
2 59932  43.0013  16.0597 0001733 296.5149  63.5525 15.27584120118831
STARLINK-31853          
1 59933U 24106M   26188.50003471  .00034552  00000+0  12586-2 0  9999
2 59933  43.0017  15.9161 0001334 240.9262 205.6301 15.27596796  5903
STARLINK-31971          
1 59934U 24106N   26188.51433664  .00005165  00000+0  19716-3 0  9993
2 59934  43.0041  12.6181 0001786 251.1336 108.9322 15.27566008118764
STARLINK-31962          
1 59936U 24106Q   26188.50616837  .00001210  00000+0  53499-4 0  9993
2 59936  43.0027  16.1618 0001420 245.5079 114.5625 15.27579805118847
STARLINK-31879          
1 59937U 24106R   26188.51644510  .00005534  00000+0  21061-3 0  9996
2 59937  43.0053  16.2384 0002100 272.4850  87.5762 15.27562291118897
STARLINK-31876          
1 59938U 24106S   26187.95352483 -.00000466  00000+0 -73936-5 0  9990
2 59938  43.0024  18.8994 0001693 261.9571  98.1089 15.27565820118778
STARLINK-31955          
1 59939U 24106T   26186.95218197 -.00003939  00000+0 -13377-3 0  9992
2 59939  43.0032  24.2762 0001366 269.7806  90.2889 15.27555589118655
STARLINK-31946          
1 59940U 24106U   26187.92411213 -.00000015  00000+0  89690-5 0  9990
2 59940  43.0052  19.5362 0001398 254.7400 105.3297 15.27574009109380
STARLINK-31948          
1 59941U 24106V   26188.50663396  .00000044  00000+0  11135-4 0  9996
2 59941  43.0057  12.6052 0000823 193.5589 166.5240 15.27574106118886
STARLINK-31900          
1 59942U 24106W   26187.93553374  .00006100  00000+0  23122-3 0  9994
2 59942  43.0057  18.7647 0001733 255.1403 104.9257 15.27548645118765
STARLINK-31973          
1 59943U 24106X   26188.49846057  .00015158  00000+0  56011-3 0  9996
2 59943  43.0071  16.1087 0001945 207.2773 152.7977 15.27527842118840
STARLINK-31966          
1 59944U 24106Y   26188.49460694  .00015423  00000+0  57022-3 0  9994
2 59944  42.9992  16.0678 0002150 183.1557 176.9281 15.27497501118896
STARLINK-11145 [DTC]    
1 59945U 24107A   26187.69989781 -.00001178  00000+0 -48605-5 0  9993
2 59945  53.1599  24.8965 0000990  94.1325 265.9806 15.69728126120839
STARLINK-11113 [DTC]    
1 59947U 24107C   26187.95936146  .00001845  00000+0  20047-4 0  9999
2 59947  53.1586  22.9277 0000642 100.4443 259.6647 15.69746218120888
STARLINK-11123 [DTC]    
1 59948U 24107D   26187.69007668  .00005923  00000+0  53641-4 0  9996
2 59948  53.1588  24.8331 0000487  72.2848 287.8223 15.69741348120898
STARLINK-11138 [DTC]    
1 59949U 24107E   26187.73413060 -.00001022  00000+0 -35742-5 0  9990
2 59949  53.1594  24.3846 0001160  92.3992 267.7159 15.69728005120906
STARLINK-11130 [DTC]    
1 59950U 24107F   26188.51289897  .00011071  00000+0  96137-4 0  9995
2 59950  53.1580  20.7193 0001357  55.7486 304.3660 15.69705258120963
STARLINK-11124 [DTC]    
1 59952U 24107H   26188.50308867  .00007890  00000+0  69926-4 0  9995
2 59952  53.1576  20.6550 0000996  88.5794 271.5338 15.69707714121035
